CTC2_L_00531001-01
1 80214U 22492EO  26070.40850694  .00000000  00000+0  00000-0 0  9994
2 80214  97.5000   0.0000 0000000   0.0000   0.0000 15.10393183    13
CTC2_L_00531002-01
1 80215U 23080NI  26070.40850694  .00000000  00000+0  00000-0 0  9999
2 80215  97.5000   7.5000 0000000   0.0000  30.0000 15.10393183    19
CTC2_L_00531003-01
1 80216U 25866ZG  26070.40850694  .00000000  00000+0  00000-0 0  9994
2 80216  97.5000  15.0000 0000000   0.0000  60.0000 15.10393183    17
CTC2_L_00531004-01
1 80217U 23431LE  26070.40850694  .00000000  00000+0  00000-0 0  9991
2 80217  97.5000  22.5000 0000000   0.0000  90.0000 15.10393183    14
CTC2_L_00531005-01
1 80218U 24475DG  26070.40850694  .00000000  00000+0  00000-0 0  9991
2 80218  97.5000  30.0000 0000000   0.0000 120.0000 15.10393183    13
CTC2_L_00531006-01
1 80219U 24200EP  26070.40850694  .00000000  00000+0  00000-0 0  9998
2 80219  97.5000  37.5000 0000000   0.0000 150.0000 15.10393183    19
CTC2_L_00531007-01
1 80220U 22990ZV  26070.40850694  .00000000  00000+0  00000-0 0  9994
2 80220  97.5000  45.0000 0000000   0.0000 180.0000 15.10393183    18
CTC2_L_00531008-01
1 80221U 22792ZL  26070.40850694  .00000000  00000+0  00000-0 0  9995
2 80221  97.5000  52.5000 0000000   0.0000 210.0000 15.10393183    16
CTC2_L_00531009-01
1 80222U 23722WQ  26070.40850694  .00000000  00000+0  00000-0 0  9990
2 80222  97.5000  60.0000 0000000   0.0000 240.0000 15.10393183    14
CTC2_L_00531010-01
1 80223U 25985ES  26070.40850694  .00000000  00000+0  00000-0 0  9994
2 80223  97.5000  67.5000 0000000   0.0000 270.0000 15.10393183    10
CTC2_L_00531011-01
1 80224U 26122MJ  26070.40850694  .00000000  00000+0  00000-0 0  9999
2 80224  97.5000  75.0000 0000000   0.0000 300.0000 15.10393183    19
CTC2_L_00531012-01
1 80225U 24673QU  26070.40850694  .00000000  00000+0  00000-0 0  9999
2 80225  97.5000  82.5000 0000000   0.0000 330.0000 15.10393183    16
CTC2_L_00531013-01
1 80226U 24047OS  26070.40850694  .00000000  00000+0  00000-0 0  9995
2 80226  97.5000  90.0000 0000000   0.0000   0.0000 15.10393183    15
CTC2_L_00531014-01
1 80227U 23302KJ  26070.40850694  .00000000  00000+0  00000-0 0  9999
2 80227  97.5000  97.5000 0000000   0.0000  30.0000 15.10393183    11
CTC2_L_00531015-01
1 80228U 23248UQ  26070.40850694  .00000000  00000+0  00000-0 0  9999
2 80228  97.5000 105.0000 0000000   0.0000  60.0000 15.10393183    10
CTC2_L_00531016-01
1 80229U 25806RS  26070.40850694  .00000000  00000+0  00000-0 0  9992
2 80229  97.5000 112.5000 0000000   0.0000  90.0000 15.10393183    17
CTC2_L_00531017-01
1 80230U 23355EP  26070.40850694  .00000000  00000+0  00000-0 0  9991
2 80230  97.5000 120.0000 0000000   0.0000 120.0000 15.10393183    17
CTC2_L_00531018-01
1 80231U 25065PR  26070.40850694  .00000000  00000+0  00000-0 0  9992
2 80231  97.5000 127.5000 0000000   0.0000 150.0000 15.10393183    13
CTC2_L_00531019-01
1 80232U 23034FU  26070.40850694  .00000000  00000+0  00000-0 0  9997
2 80232  97.5000 135.0000 0000000   0.0000 180.0000 15.10393183    11
CTC2_L_00531020-01
1 80233U 23851RR  26070.40850694  .00000000  00000+0  00000-0 0  9995
2 80233  97.5000 142.5000 0000000   0.0000 210.0000 15.10393183    19
CTC2_L_00531021-01
1 80234U 26488BI  26070.40850694  .00000000  00000+0  00000-0 0  9995
2 80234  97.5000 150.0000 0000000   0.0000 240.0000 15.10393183    17
CTC2_L_00531022-01
1 80235U 24915RW  26070.40850694  .00000000  00000+0  00000-0 0  9999
2 80235  97.5000 157.5000 0000000   0.0000 270.0000 15.10393183    13
CTC2_L_00531023-01
1 80236U 25497KC  26070.40850694  .00000000  00000+0  00000-0 0  9996
2 80236  97.5000 165.0000 0000000   0.0000 300.0000 15.10393183    12
CTC2_L_00531024-01
1 80237U 24907RQ  26070.40850694  .00000000  00000+0  00000-0 0  9992
2 80237  97.5000 172.5000 0000000   0.0000 330.0000 15.10393183    19
CTC2_L_00531025-01
1 80238U 26454S   26070.40850694  .00000000  00000+0  00000-0 0  9992
2 80238  97.5000 180.0000 0000000   0.0000   0.0000 15.10393183    18
CTC2_L_00531026-01
1 80239U 24936UH  26070.40850694  .00000000  00000+0  00000-0 0  9996
2 80239  97.5000 187.5000 0000000   0.0000  30.0000 15.10393183    14
CTC2_L_00531027-01
1 80240U 25235VP  26070.40850694  .00000000  00000+0  00000-0 0  9991
2 80240  97.5000 195.0000 0000000   0.0000  60.0000 15.10393183    13
CTC2_L_00531028-01
1 80241U 26707WB  26070.40850694  .00000000  00000+0  00000-0 0  9997
2 80241  97.5000 202.5000 0000000   0.0000  90.0000 15.10393183    11
CTC2_L_00531029-01
1 80242U 22337JB  26070.40850694  .00000000  00000+0  00000-0 0  9993
2 80242  97.5000 210.0000 0000000   0.0000 120.0000 15.10393183    10
CTC2_L_00531030-01
1 80243U 23234XU  26070.40850694  .00000000  00000+0  00000-0 0  9991
2 80243  97.5000 217.5000 0000000   0.0000 150.0000 15.10393183    16
CTC2_L_00531031-01
1 80244U 24300VM  26070.40850694  .00000000  00000+0  00000-0 0  9997
2 80244  97.5000 225.0000 0000000   0.0000 180.0000 15.10393183    14
CTC2_L_00531032-01
1 80245U 24068F   26070.40850694  .00000000  00000+0  00000-0 0  9999
2 80245  97.5000 232.5000 0000000   0.0000 210.0000 15.10393183    12
CTC2_L_00531033-01
1 80246U 26880IE  26070.40850694  .00000000  00000+0  00000-0 0  9994
2 80246  97.5000 240.0000 0000000   0.0000 240.0000 15.10393183    10
CTC2_L_00531034-01
1 80247U 25987GB  26070.40850694  .00000000  00000+0  00000-0 0  9992
2 80247  97.5000 247.5000 0000000   0.0000 270.0000 15.10393183    16
CTC2_L_00531035-01
1 80248U 23872HX  26070.40850694  .00000000  00000+0  00000-0 0  9994
2 80248  97.5000 255.0000 0000000   0.0000 300.0000 15.10393183    15
CTC2_L_00531036-01
1 80249U 22831HX  26070.40850694  .00000000  00000+0  00000-0 0  9999
2 80249  97.5000 262.5000 0000000   0.0000 330.0000 15.10393183    12
CTC2_L_00531037-01
1 80250U 25309TW  26070.40850694  .00000000  00000+0  00000-0 0  9994
2 80250  97.5000 270.0000 0000000   0.0000   0.0000 15.10393183    12
CTC2_L_00531038-01
1 80251U 25720YK  26070.40850694  .00000000  00000+0  00000-0 0  9992
2 80251  97.5000 277.5000 0000000   0.0000  30.0000 15.10393183    18
CTC2_L_00531039-01
1 80252U 22247KN  26070.40850694  .00000000  00000+0  00000-0 0  9994
2 80252  97.5000 285.0000 0000000   0.0000  60.0000 15.10393183    16
CTC2_L_00531040-01
1 80253U 26144KD  26070.40850694  .00000000  00000+0  00000-0 0  9995
2 80253  97.5000 292.5000 0000000   0.0000  90.0000 15.10393183    13
CTC2_L_00531041-01
1 80254U 22311YU  26070.40850694  .00000000  00000+0  00000-0 0  9998
2 80254  97.5000 300.0000 0000000   0.0000 120.0000 15.10393183    13
CTC2_L_00531042-01
1 80255U 22417DN  26070.40850694  .00000000  00000+0  00000-0 0  9996
2 80255  97.5000 307.5000 0000000   0.0000 150.0000 15.10393183    19
CTC2_L_00531043-01
1 80256U 24077QP  26070.40850694  .00000000  00000+0  00000-0 0  9991
2 80256  97.5000 315.0000 0000000   0.0000 180.0000 15.10393183    17
CTC2_L_00531044-01
1 80257U 22284H   26070.40850694  .00000000  00000+0  00000-0 0  9990
2 80257  97.5000 322.5000 0000000   0.0000 210.0000 15.10393183    15
CTC2_L_00531045-01
1 80258U 26394P   26070.40850694  .00000000  00000+0  00000-0 0  9997
2 80258  97.5000 330.0000 0000000   0.0000 240.0000 15.10393183    13
CTC2_L_00531046-01
1 80259U 26205VT  26070.40850694  .00000000  00000+0  00000-0 0  9999
2 80259  97.5000 337.5000 0000000   0.0000 270.0000 15.10393183    19
CTC2_L_00531047-01
1 80260U 26345PI  26070.40850694  .00000000  00000+0  00000-0 0  9996
2 80260  97.5000 345.0000 0000000   0.0000 300.0000 15.10393183    19
CTC2_L_00531048-01
1 80261U 22871GI  26070.40850694  .00000000  00000+0  00000-0 0  9997
2 80261  97.5000 352.5000 0000000   0.0000 330.0000 15.10393183    16
